CCSDS_OMM_VERS = 2.0
CREATION_DATE  = 
ORIGINATOR     = 

OBJECT_NAME    = STARLINK-36486
OBJECT_ID      = 2026-003B
CENTER_NAME    = EARTH
REF_FRAME      = TEME
TIME_SYSTEM    = UTC
MEAN_ELEMENT_THEORY = SGP/SGP4

EPOCH          = 2026-02-03T04:00:01.999584
MEAN_MOTION    = 15.50529114
ECCENTRICITY   = .0001346
INCLINATION    = 42.9996
RA_OF_ASC_NODE = 63.4569
ARG_OF_PERICENTER = 258.4750
MEAN_ANOMALY   = 248.6273

EPHEMERIS_TYPE = 0
CLASSIFICATION_TYPE = U
NORAD_CAT_ID   = 67335
ELEMENT_SET_NO = 999
REV_AT_EPOCH   = 512
BSTAR          = .9618E-3
MEAN_MOTION_DOT = .56389E-3
MEAN_MOTION_DDOT = 0

CCSDS_OMM_VERS = 2.0
CREATION_DATE  = 
ORIGINATOR     = 

OBJECT_NAME    = STARLINK-36480
OBJECT_ID      = 2026-003C
CENTER_NAME    = EARTH
REF_FRAME      = TEME
TIME_SYSTEM    = UTC
MEAN_ELEMENT_THEORY = SGP/SGP4

EPOCH          = 2026-02-03T04:00:01.999584
MEAN_MOTION    = 15.50531766
ECCENTRICITY   = .0001547
INCLINATION    = 42.9996
RA_OF_ASC_NODE = 63.4522
ARG_OF_PERICENTER = 257.3995
MEAN_ANOMALY   = 251.6213

EPHEMERIS_TYPE = 0
CLASSIFICATION_TYPE = U
NORAD_CAT_ID   = 67336
ELEMENT_SET_NO = 999
REV_AT_EPOCH   = 512
BSTAR          = .8083E-3
MEAN_MOTION_DOT = .47284E-3
MEAN_MOTION_DDOT = 0

CCSDS_OMM_VERS = 2.0
CREATION_DATE  = 
ORIGINATOR     = 

OBJECT_NAME    = STARLINK-36410
OBJECT_ID      = 2026-003D
CENTER_NAME    = EARTH
REF_FRAME      = TEME
TIME_SYSTEM    = UTC
MEAN_ELEMENT_THEORY = SGP/SGP4

EPOCH          = 2026-02-03T04:00:01.999584
MEAN_MOTION    = 15.50528863
ECCENTRICITY   = .000184
INCLINATION    = 42.9996
RA_OF_ASC_NODE = 63.4475
ARG_OF_PERICENTER = 245.9789
MEAN_ANOMALY   = 264.9505

EPHEMERIS_TYPE = 0
CLASSIFICATION_TYPE = U
NORAD_CAT_ID   = 67337
ELEMENT_SET_NO = 999
REV_AT_EPOCH   = 512
BSTAR          = .11058E-2
MEAN_MOTION_DOT = .64958E-3
MEAN_MOTION_DDOT = 0

CCSDS_OMM_VERS = 2.0
CREATION_DATE  = 
ORIGINATOR     = 

OBJECT_NAME    = STARLINK-36413
OBJECT_ID      = 2026-003E
CENTER_NAME    = EARTH
REF_FRAME      = TEME
TIME_SYSTEM    = UTC
MEAN_ELEMENT_THEORY = SGP/SGP4

EPOCH          = 2026-02-03T04:00:01.999584
MEAN_MOTION    = 15.50533218
ECCENTRICITY   = .0001369
INCLINATION    = 42.9996
RA_OF_ASC_NODE = 63.4426
ARG_OF_PERICENTER = 259.7531
MEAN_ANOMALY   = 253.0992

EPHEMERIS_TYPE = 0
CLASSIFICATION_TYPE = U
NORAD_CAT_ID   = 67338
ELEMENT_SET_NO = 999
REV_AT_EPOCH   = 512
BSTAR          = .87595E-3
MEAN_MOTION_DOT = .51299E-3
MEAN_MOTION_DDOT = 0

CCSDS_OMM_VERS = 2.0
CREATION_DATE  = 
ORIGINATOR     = 

OBJECT_NAME    = STARLINK-36451
OBJECT_ID      = 2026-003F
CENTER_NAME    = EARTH
REF_FRAME      = TEME
TIME_SYSTEM    = UTC
MEAN_ELEMENT_THEORY = SGP/SGP4

EPOCH          = 2026-02-03T04:00:01.999584
MEAN_MOTION    = 15.50532104
ECCENTRICITY   = .0001426
INCLINATION    = 42.9996
RA_OF_ASC_NODE = 63.4367
ARG_OF_PERICENTER = 264.8055
MEAN_ANOMALY   = 249.9690

EPHEMERIS_TYPE = 0
CLASSIFICATION_TYPE = U
NORAD_CAT_ID   = 67339
ELEMENT_SET_NO = 999
REV_AT_EPOCH   = 512
BSTAR          = .71812E-3
MEAN_MOTION_DOT = .41943E-3
MEAN_MOTION_DDOT = 0

CCSDS_OMM_VERS = 2.0
CREATION_DATE  = 
ORIGINATOR     = 

OBJECT_NAME    = STARLINK-36339
OBJECT_ID      = 2026-003G
CENTER_NAME    = EARTH
REF_FRAME      = TEME
TIME_SYSTEM    = UTC
MEAN_ELEMENT_THEORY = SGP/SGP4

EPOCH          = 2026-02-03T04:00:01.999584
MEAN_MOTION    = 15.50534215
ECCENTRICITY   = .0001313
INCLINATION    = 42.9996
RA_OF_ASC_NODE = 63.4324
ARG_OF_PERICENTER = 263.2248
MEAN_ANOMALY   = 253.4642

EPHEMERIS_TYPE = 0
CLASSIFICATION_TYPE = U
NORAD_CAT_ID   = 67340
ELEMENT_SET_NO = 999
REV_AT_EPOCH   = 512
BSTAR          = .71102E-3
MEAN_MOTION_DOT = .41525E-3
MEAN_MOTION_DDOT = 0

CCSDS_OMM_VERS = 2.0
CREATION_DATE  = 
ORIGINATOR     = 

OBJECT_NAME    = STARLINK-36453
OBJECT_ID      = 2026-003H
CENTER_NAME    = EARTH
REF_FRAME      = TEME
TIME_SYSTEM    = UTC
MEAN_ELEMENT_THEORY = SGP/SGP4

EPOCH          = 2026-02-03T04:00:01.999584
MEAN_MOTION    = 15.50532585
ECCENTRICITY   = .0001342
INCLINATION    = 42.9996
RA_OF_ASC_NODE = 63.4268
ARG_OF_PERICENTER = 260.2375
MEAN_ANOMALY   = 258.3692

EPHEMERIS_TYPE = 0
CLASSIFICATION_TYPE = U
NORAD_CAT_ID   = 67341
ELEMENT_SET_NO = 999
REV_AT_EPOCH   = 512
BSTAR          = .73948E-3
MEAN_MOTION_DOT = .43208E-3
MEAN_MOTION_DDOT = 0

CCSDS_OMM_VERS = 2.0
CREATION_DATE  = 
ORIGINATOR     = 

OBJECT_NAME    = STARLINK-36432
OBJECT_ID      = 2026-003J
CENTER_NAME    = EARTH
REF_FRAME      = TEME
TIME_SYSTEM    = UTC
MEAN_ELEMENT_THEORY = SGP/SGP4

EPOCH          = 2026-02-03T04:00:01.999584
MEAN_MOTION    = 15.50528570
ECCENTRICITY   = .0001283
INCLINATION    = 42.9997
RA_OF_ASC_NODE = 63.4227
ARG_OF_PERICENTER = 255.5709
MEAN_ANOMALY   = 264.9567

EPHEMERIS_TYPE = 0
CLASSIFICATION_TYPE = U
NORAD_CAT_ID   = 67342
ELEMENT_SET_NO = 999
REV_AT_EPOCH   = 511
BSTAR          = .78018E-3
MEAN_MOTION_DOT = .45612E-3
MEAN_MOTION_DDOT = 0

CCSDS_OMM_VERS = 2.0
CREATION_DATE  = 
ORIGINATOR     = 

OBJECT_NAME    = STARLINK-36458
OBJECT_ID      = 2026-003K
CENTER_NAME    = EARTH
REF_FRAME      = TEME
TIME_SYSTEM    = UTC
MEAN_ELEMENT_THEORY = SGP/SGP4

EPOCH          = 2026-02-03T04:00:01.999584
MEAN_MOTION    = 15.50529996
ECCENTRICITY   = .0001399
INCLINATION    = 42.9996
RA_OF_ASC_NODE = 63.4182
ARG_OF_PERICENTER = 255.1951
MEAN_ANOMALY   = 267.2448

EPHEMERIS_TYPE = 0
CLASSIFICATION_TYPE = U
NORAD_CAT_ID   = 67343
ELEMENT_SET_NO = 999
REV_AT_EPOCH   = 512
BSTAR          = .92534E-3
MEAN_MOTION_DOT = .54225E-3
MEAN_MOTION_DDOT = 0

CCSDS_OMM_VERS = 2.0
CREATION_DATE  = 
ORIGINATOR     = 

OBJECT_NAME    = STARLINK-36422
OBJECT_ID      = 2026-003L
CENTER_NAME    = EARTH
REF_FRAME      = TEME
TIME_SYSTEM    = UTC
MEAN_ELEMENT_THEORY = SGP/SGP4

EPOCH          = 2026-02-03T04:00:01.999584
MEAN_MOTION    = 15.50531272
ECCENTRICITY   = .00012
INCLINATION    = 42.9996
RA_OF_ASC_NODE = 63.4119
ARG_OF_PERICENTER = 257.5010
MEAN_ANOMALY   = 266.8584

EPHEMERIS_TYPE = 0
CLASSIFICATION_TYPE = U
NORAD_CAT_ID   = 67344
ELEMENT_SET_NO = 999
REV_AT_EPOCH   = 511
BSTAR          = .74152E-3
MEAN_MOTION_DOT = .43326E-3
MEAN_MOTION_DDOT = 0

CCSDS_OMM_VERS = 2.0
CREATION_DATE  = 
ORIGINATOR     = 

OBJECT_NAME    = STARLINK-35676
OBJECT_ID      = 2026-003M
CENTER_NAME    = EARTH
REF_FRAME      = TEME
TIME_SYSTEM    = UTC
MEAN_ELEMENT_THEORY = SGP/SGP4

EPOCH          = 2026-02-03T04:00:01.999584
MEAN_MOTION    = 15.50528579
ECCENTRICITY   = .0001623
INCLINATION    = 42.9996
RA_OF_ASC_NODE = 63.4077
ARG_OF_PERICENTER = 268.4626
MEAN_ANOMALY   = 257.8160

EPHEMERIS_TYPE = 0
CLASSIFICATION_TYPE = U
NORAD_CAT_ID   = 67345
ELEMENT_SET_NO = 999
REV_AT_EPOCH   = 511
BSTAR          = .74361E-3
MEAN_MOTION_DOT = .43447E-3
MEAN_MOTION_DDOT = 0

CCSDS_OMM_VERS = 2.0
CREATION_DATE  = 
ORIGINATOR     = 

OBJECT_NAME    = STARLINK-36472
OBJECT_ID      = 2026-003N
CENTER_NAME    = EARTH
REF_FRAME      = TEME
TIME_SYSTEM    = UTC
MEAN_ELEMENT_THEORY = SGP/SGP4

EPOCH          = 2026-02-03T04:00:01.999584
MEAN_MOTION    = 15.50529633
ECCENTRICITY   = .0001571
INCLINATION    = 42.9997
RA_OF_ASC_NODE = 63.4034
ARG_OF_PERICENTER = 251.1512
MEAN_ANOMALY   = 277.0394

EPHEMERIS_TYPE = 0
CLASSIFICATION_TYPE = U
NORAD_CAT_ID   = 67346
ELEMENT_SET_NO = 999
REV_AT_EPOCH   = 511
BSTAR          = .91351E-3
MEAN_MOTION_DOT = .53523E-3
MEAN_MOTION_DDOT = 0

CCSDS_OMM_VERS = 2.0
CREATION_DATE  = 
ORIGINATOR     = 

OBJECT_NAME    = STARLINK-36420
OBJECT_ID      = 2026-003P
CENTER_NAME    = EARTH
REF_FRAME      = TEME
TIME_SYSTEM    = UTC
MEAN_ELEMENT_THEORY = SGP/SGP4

EPOCH          = 2026-02-03T04:00:01.999584
MEAN_MOTION    = 15.50529642
ECCENTRICITY   = .0001524
INCLINATION    = 42.9996
RA_OF_ASC_NODE = 63.3931
ARG_OF_PERICENTER = 268.8588
MEAN_ANOMALY   = 263.1707

EPHEMERIS_TYPE = 0
CLASSIFICATION_TYPE = U
NORAD_CAT_ID   = 67347
ELEMENT_SET_NO = 999
REV_AT_EPOCH   = 512
BSTAR          = .7547E-3
MEAN_MOTION_DOT = .44105E-3
MEAN_MOTION_DDOT = 0

CCSDS_OMM_VERS = 2.0
CREATION_DATE  = 
ORIGINATOR     = 

OBJECT_NAME    = STARLINK-36467
OBJECT_ID      = 2026-003Q
CENTER_NAME    = EARTH
REF_FRAME      = TEME
TIME_SYSTEM    = UTC
MEAN_ELEMENT_THEORY = SGP/SGP4

EPOCH          = 2026-02-03T04:00:01.999584
MEAN_MOTION    = 15.50528827
ECCENTRICITY   = .0001567
INCLINATION    = 42.9996
RA_OF_ASC_NODE = 63.3989
ARG_OF_PERICENTER = 268.2595
MEAN_ANOMALY   = 261.8504

EPHEMERIS_TYPE = 0
CLASSIFICATION_TYPE = U
NORAD_CAT_ID   = 67348
ELEMENT_SET_NO = 999
REV_AT_EPOCH   = 512
BSTAR          = .86019E-3
MEAN_MOTION_DOT = .50356E-3
MEAN_MOTION_DDOT = 0

CCSDS_OMM_VERS = 2.0
CREATION_DATE  = 
ORIGINATOR     = 

OBJECT_NAME    = STARLINK-36457
OBJECT_ID      = 2026-003R
CENTER_NAME    = EARTH
REF_FRAME      = TEME
TIME_SYSTEM    = UTC
MEAN_ELEMENT_THEORY = SGP/SGP4

EPOCH          = 2026-02-03T04:00:01.999584
MEAN_MOTION    = 15.50533379
ECCENTRICITY   = .000143
INCLINATION    = 42.9996
RA_OF_ASC_NODE = 63.3883
ARG_OF_PERICENTER = 264.5824
MEAN_ANOMALY   = 269.3607

EPHEMERIS_TYPE = 0
CLASSIFICATION_TYPE = U
NORAD_CAT_ID   = 67349
ELEMENT_SET_NO = 999
REV_AT_EPOCH   = 512
BSTAR          = .73638E-3
MEAN_MOTION_DOT = .43025E-3
MEAN_MOTION_DDOT = 0

